{
    "links": {
        "self": "http://www.neowsapp.com/rest/v1/neo/3607874?api_key=iIulBulltgU6a56xZRHN4H3l9WmuAYTsLGpBGhQ2"
    },
    "id": "3607874",
    "neo_reference_id": "3607874",
    "name": "(2012 QZ16)",
    "designation": "2012 QZ16",
    "nasa_jpl_url": "http://ssd.jpl.nasa.gov/sbdb.cgi?sstr=3607874",
    "absolute_magnitude_h": 25.5,
    "estimated_diameter": {
        "kilometers": {
            "estimated_diameter_min": 0.0211132445,
            "estimated_diameter_max": 0.0472106499
        },
        "meters": {
            "estimated_diameter_min": 21.113244479,
            "estimated_diameter_max": 47.2106498806
        },
        "miles": {
            "estimated_diameter_min": 0.0131191578,
            "estimated_diameter_max": 0.0293353287
        },
        "feet": {
            "estimated_diameter_min": 69.2691770164,
            "estimated_diameter_max": 154.8905885541
        }
    },
    "is_potentially_hazardous_asteroid": false,
    "close_approach_data": [
        {
            "close_approach_date": "2009-02-14",
            "close_approach_date_full": "2009-Feb-14 17:42",
            "epoch_date_close_approach": 1234633320000,
            "relative_velocity": {
                "kilometers_per_second": "26.2207077069",
                "kilometers_per_hour": "94394.5477446766",
                "miles_per_hour": "58653.1010694631"
            },
            "miss_distance": {
                "astronomical": "0.4269468367",
                "lunar": "166.0823194763",
                "kilometers": "63870337.373557829",
                "miles": "39687187.3245988802"
            },
            "orbiting_body": "Earth"
        },
        {
            "close_approach_date": "2012-08-30",
            "close_approach_date_full": "2012-Aug-30 09:27",
            "epoch_date_close_approach": 1346318820000,
            "relative_velocity": {
                "kilometers_per_second": "13.2018286204",
                "kilometers_per_hour": "47526.5830332866",
                "miles_per_hour": "29531.1704408775"
            },
            "miss_distance": {
                "astronomical": "0.0179218395",
                "lunar": "6.9715955655",
                "kilometers": "2681069.015681865",
                "miles": "1665939.035725137"
            },
            "orbiting_body": "Earth"
        },
        {
            "close_approach_date": "2112-02-20",
            "close_approach_date_full": "2112-Feb-20 06:59",
            "epoch_date_close_approach": 4485394740000,
            "relative_velocity": {
                "kilometers_per_second": "28.3081112949",
                "kilometers_per_hour": "101909.2006618164",
                "miles_per_hour": "63322.4141556714"
            },
            "miss_distance": {
                "astronomical": "0.4951836395",
                "lunar": "192.6264357655",
                "kilometers": "74078417.728047865",
                "miles": "46030194.327735937"
            },
            "orbiting_body": "Earth"
        }
    ],
    "orbital_data": {
        "orbit_id": "8",
        "orbit_determination_date": "2019-07-17 06:09:42",
        "first_observation_date": "2012-08-21",
        "last_observation_date": "2012-08-25",
        "data_arc_in_days": 4,
        "observations_used": 25,
        "orbit_uncertainty": "7",
        "minimum_orbit_intersection": ".00902866",
        "jupiter_tisserand_invariant": "4.318",
        "epoch_osculation": "2459000.5",
        "eccentricity": ".5032288144293434",
        "semi_major_axis": "1.537658570783623",
        "inclination": "6.120627057884765",
        "ascending_node_longitude": "151.5441128540335",
        "orbital_period": "696.4473605854052",
        "perihelion_distance": ".7638644712110616",
        "perihelion_argument": "259.0614845085391",
        "aphelion_distance": "2.311452670356184",
        "perihelion_time": "2459005.889814050335",
        "mean_anomaly": "357.2139559025828",
        "mean_motion": ".5169091310754609",
        "equinox": "J2000",
        "orbit_class": {
            "orbit_class_type": "APO",
            "orbit_class_description": "Near-Earth asteroid orbits which cross the Earth’s orbit similar to that of 1862 Apollo",
            "orbit_class_range": "a (semi-major axis) > 1.0 AU; q (perihelion) < 1.017 AU"
        }
    },
    "is_sentry_object": false
}